[{"OBJECT_NAME":"YAOGAN-43 01D","OBJECT_ID":"2024-148D","EPOCH":"2026-03-09T10:27:16.254720","MEAN_MOTION":15.28369377,"ECCENTRICITY":0.00025569,"INCLINATION":35.001,"RA_OF_ASC_NODE":61.7102,"ARG_OF_PERICENTER":326.2473,"MEAN_ANOMALY":33.808,"EPHEMERIS_TYPE":0,"CLASSIFICATION_TYPE":"U","NORAD_CAT_ID":60461,"ELEMENT_SET_NO":999,"REV_AT_EPOCH":8700,"BSTAR":0.00037765912,"MEAN_MOTION_DOT":0.00010676,"MEAN_MOTION_DDOT":0},{"OBJECT_NAME":"STARLINK-33569","OBJECT_ID":"2025-015M","EPOCH":"2026-03-09T22:39:46.650816","MEAN_MOTION":15.30210476,"ECCENTRICITY":5.217e-5,"INCLINATION":53.1611,"RA_OF_ASC_NODE":321.0256,"ARG_OF_PERICENTER":122.8196,"MEAN_ANOMALY":237.2855,"EPHEMERIS_TYPE":0,"CLASSIFICATION_TYPE":"U","NORAD_CAT_ID":62769,"ELEMENT_SET_NO":999,"REV_AT_EPOCH":6452,"BSTAR":0.0014814737,"MEAN_MOTION_DOT":0.00043791,"MEAN_MOTION_DDOT":0}]
